HULIANWANG DIGUI-33     
1 64286U 25121D   26062.15119913  .00000060  00000+0  10468-3 0  9990
2 64286  86.4963  49.3672 0002092  79.0236 281.1133 13.24425304 36124
HULIANWANG DIGUI-34     
1 64287U 25121E   26062.14369387  .00000066  00000+0  11943-3 0  9997
2 64287  86.4941  49.3021 0002250  75.4463 284.6921 13.24424188 36129
HULIANWANG DIGUI-35     
1 64956U 25159A   26062.11014506  .00000105  00000+0  21076-3 0  9990
2 64956  86.4989 318.2863 0001322  70.7810 289.3467 13.24417011 29080
HULIANWANG DIGUI-36     
1 64957U 25159B   26062.17794979  .00000066  00000+0  11995-3 0  9991
2 64957  86.5008 318.3007 0001393  70.0082 290.1202 13.24419515 29096
HULIANWANG DIGUI-37     
1 64958U 25159C   26062.17040712  .00000070  00000+0  12970-3 0  9990
2 64958  86.4949 318.1665 0001471  68.1880 291.9410 13.24419171 29097
HULIANWANG DIGUI-38     
1 64959U 25159D   26062.16287214  .00000071  00000+0  13164-3 0  9997
2 64959  86.5008 318.2936 0001446  70.6180 289.5110 13.24419399 29092
HULIANWANG DIGUI-39     
1 64960U 25159E   26062.15530508  .00000060  00000+0  10490-3 0  9992
2 64960  86.4984 318.2365 0001449  71.9574 288.1718 13.24419530 29092
HULIANWANG DIGUI-40     
1 65043U 25162A   26062.16336691 -.00000070  00000+0  11713-3 0  9998
2 65043  49.9992 286.2381 0001009  66.5622 293.5357 13.29332029 29244
HULIANWANG DIGUI-41     
1 65044U 25162B   26062.15501512 -.00000062  00000+0  13364-3 0  9999
2 65044  50.0002 286.2118 0001056  66.6482 293.4501 13.29332388 29254
HULIANWANG DIGUI-42     
1 65045U 25162C   26062.14663319 -.00000069  00000+0  11887-3 0  9998
2 65045  49.9967 286.1070 0000995  68.1857 291.9121 13.29331739 29252
HULIANWANG DIGUI-43     
1 65046U 25162D   26062.13826034 -.00000063  00000+0  13082-3 0  9996
2 65046  49.9984 286.0950 0000987  66.9500 293.1476 13.29332767 29259
HULIANWANG DIGUI-44     
1 65047U 25162E   26062.12962714 -.00000066  00000+0  12552-3 0  9996
2 65047  50.0011 286.0975 0000785 345.9652  14.1198 13.29340353 29268
HULIANWANG DIGUI-45     
1 65048U 25162F   26062.12158721 -.00000061  00000+0  13620-3 0  9994
2 65048  50.0042 286.1089 0001045  66.7597 293.3385 13.29332689 29257
HULIANWANG DIGUI-46     
1 65049U 25162G   26062.18841052 -.00000065  00000+0  12707-3 0  9996
2 65049  50.0059 285.8283 0001042  69.1076 290.9908 13.29332641 29267
HULIANWANG DIGUI-47     
1 65050U 25162H   26062.18005419 -.00000064  00000+0  12837-3 0  9990
2 65050  50.0024 285.7232 0001020  70.0067 290.0915 13.29332524 29260
HULIANWANG DIGUI-48     
1 65051U 25162J   26062.17172171 -.00000068  00000+0  12125-3 0  9994
2 65051  50.0034 285.6969 0001010  68.0858 292.0122 13.29332015 29269
