[{"OBJECT_NAME":"HULIANWANG DIGUI-33","OBJECT_ID":"2025-121D","EPOCH":"2026-03-03T03:37:43.604832","MEAN_MOTION":13.24425304,"ECCENTRICITY":0.0002092,"INCLINATION":86.4963,"RA_OF_ASC_NODE":49.3672,"ARG_OF_PERICENTER":79.0236,"MEAN_ANOMALY":281.1133,"EPHEMERIS_TYPE":0,"CLASSIFICATION_TYPE":"U","NORAD_CAT_ID":64286,"ELEMENT_SET_NO":999,"REV_AT_EPOCH":3612,"BSTAR":0.00010468,"MEAN_MOTION_DOT":6.0e-7,"MEAN_MOTION_DDOT":0},{"OBJECT_NAME":"HULIANWANG DIGUI-34","OBJECT_ID":"2025-121E","EPOCH":"2026-03-03T03:26:55.150368","MEAN_MOTION":13.24424188,"ECCENTRICITY":0.000225,"INCLINATION":86.4941,"RA_OF_ASC_NODE":49.3021,"ARG_OF_PERICENTER":75.4463,"MEAN_ANOMALY":284.6921,"EPHEMERIS_TYPE":0,"CLASSIFICATION_TYPE":"U","NORAD_CAT_ID":64287,"ELEMENT_SET_NO":999,"REV_AT_EPOCH":3612,"BSTAR":0.00011943,"MEAN_MOTION_DOT":6.6e-7,"MEAN_MOTION_DDOT":0},{"OBJECT_NAME":"HULIANWANG DIGUI-35","OBJECT_ID":"2025-159A","EPOCH":"2026-03-03T02:38:36.533184","MEAN_MOTION":13.24417011,"ECCENTRICITY":0.0001322,"INCLINATION":86.4989,"RA_OF_ASC_NODE":318.2863,"ARG_OF_PERICENTER":70.781,"MEAN_ANOMALY":289.3467,"EPHEMERIS_TYPE":0,"CLASSIFICATION_TYPE":"U","NORAD_CAT_ID":64956,"ELEMENT_SET_NO":999,"REV_AT_EPOCH":2908,"BSTAR":0.00021076,"MEAN_MOTION_DOT":1.05e-6,"MEAN_MOTION_DDOT":0},{"OBJECT_NAME":"HULIANWANG DIGUI-36","OBJECT_ID":"2025-159B","EPOCH":"2026-03-03T04:16:14.861856","MEAN_MOTION":13.24419515,"ECCENTRICITY":0.0001393,"INCLINATION":86.5008,"RA_OF_ASC_NODE":318.3007,"ARG_OF_PERICENTER":70.0082,"MEAN_ANOMALY":290.1202,"EPHEMERIS_TYPE":0,"CLASSIFICATION_TYPE":"U","NORAD_CAT_ID":64957,"ELEMENT_SET_NO":999,"REV_AT_EPOCH":2909,"BSTAR":0.00011995,"MEAN_MOTION_DOT":6.6e-7,"MEAN_MOTION_DDOT":0},{"OBJECT_NAME":"HULIANWANG DIGUI-37","OBJECT_ID":"2025-159C","EPOCH":"2026-03-03T04:05:23.175168","MEAN_MOTION":13.24419171,"ECCENTRICITY":0.0001471,"INCLINATION":86.4949,"RA_OF_ASC_NODE":318.1665,"ARG_OF_PERICENTER":68.188,"MEAN_ANOMALY":291.941,"EPHEMERIS_TYPE":0,"CLASSIFICATION_TYPE":"U","NORAD_CAT_ID":64958,"ELEMENT_SET_NO":999,"REV_AT_EPOCH":2909,"BSTAR":0.0001297,"MEAN_MOTION_DOT":7.0e-7,"MEAN_MOTION_DDOT":0},{"OBJECT_NAME":"HULIANWANG DIGUI-38","OBJECT_ID":"2025-159D","EPOCH":"2026-03-03T03:54:32.152896","MEAN_MOTION":13.24419399,"ECCENTRICITY":0.0001446,"INCLINATION":86.5008,"RA_OF_ASC_NODE":318.2936,"ARG_OF_PERICENTER":70.618,"MEAN_ANOMALY":289.511,"EPHEMERIS_TYPE":0,"CLASSIFICATION_TYPE":"U","NORAD_CAT_ID":64959,"ELEMENT_SET_NO":999,"REV_AT_EPOCH":2909,"BSTAR":0.00013164,"MEAN_MOTION_DOT":7.1e-7,"MEAN_MOTION_DDOT":0},{"OBJECT_NAME":"HULIANWANG DIGUI-39","OBJECT_ID":"2025-159E","EPOCH":"2026-03-03T03:43:38.358912","MEAN_MOTION":13.2441953,"ECCENTRICITY":0.0001449,"INCLINATION":86.4984,"RA_OF_ASC_NODE":318.2365,"ARG_OF_PERICENTER":71.9574,"MEAN_ANOMALY":288.1718,"EPHEMERIS_TYPE":0,"CLASSIFICATION_TYPE":"U","NORAD_CAT_ID":64960,"ELEMENT_SET_NO":999,"REV_AT_EPOCH":2909,"BSTAR":0.0001049,"MEAN_MOTION_DOT":6.0e-7,"MEAN_MOTION_DDOT":0},{"OBJECT_NAME":"HULIANWANG DIGUI-40","OBJECT_ID":"2025-162A","EPOCH":"2026-03-03T03:55:14.901024","MEAN_MOTION":13.29332029,"ECCENTRICITY":0.0001009,"INCLINATION":49.9992,"RA_OF_ASC_NODE":286.2381,"ARG_OF_PERICENTER":66.5622,"MEAN_ANOMALY":293.5357,"EPHEMERIS_TYPE":0,"CLASSIFICATION_TYPE":"U","NORAD_CAT_ID":65043,"ELEMENT_SET_NO":999,"REV_AT_EPOCH":2924,"BSTAR":0.00011713,"MEAN_MOTION_DOT":-7.0e-7,"MEAN_MOTION_DDOT":0},{"OBJECT_NAME":"HULIANWANG DIGUI-41","OBJECT_ID":"2025-162B","EPOCH":"2026-03-03T03:43:13.306368","MEAN_MOTION":13.29332388,"ECCENTRICITY":0.0001056,"INCLINATION":50.0002,"RA_OF_ASC_NODE":286.2118,"ARG_OF_PERICENTER":66.6482,"MEAN_ANOMALY":293.4501,"EPHEMERIS_TYPE":0,"CLASSIFICATION_TYPE":"U","NORAD_CAT_ID":65044,"ELEMENT_SET_NO":999,"REV_AT_EPOCH":2925,"BSTAR":0.00013364,"MEAN_MOTION_DOT":-6.2e-7,"MEAN_MOTION_DDOT":0},{"OBJECT_NAME":"HULIANWANG DIGUI-42","OBJECT_ID":"2025-162C","EPOCH":"2026-03-03T03:31:09.107616","MEAN_MOTION":13.29331739,"ECCENTRICITY":9.95e-5,"INCLINATION":49.9967,"RA_OF_ASC_NODE":286.107,"ARG_OF_PERICENTER":68.1857,"MEAN_ANOMALY":291.9121,"EPHEMERIS_TYPE":0,"CLASSIFICATION_TYPE":"U","NORAD_CAT_ID":65045,"ELEMENT_SET_NO":999,"REV_AT_EPOCH":2925,"BSTAR":0.00011887,"MEAN_MOTION_DOT":-6.9e-7,"MEAN_MOTION_DDOT":0},{"OBJECT_NAME":"HULIANWANG DIGUI-43","OBJECT_ID":"2025-162D","EPOCH":"2026-03-03T03:19:05.693376","MEAN_MOTION":13.29332767,"ECCENTRICITY":9.87e-5,"INCLINATION":49.9984,"RA_OF_ASC_NODE":286.095,"ARG_OF_PERICENTER":66.95,"MEAN_ANOMALY":293.1476,"EPHEMERIS_TYPE":0,"CLASSIFICATION_TYPE":"U","NORAD_CAT_ID":65046,"ELEMENT_SET_NO":999,"REV_AT_EPOCH":2925,"BSTAR":0.00013082,"MEAN_MOTION_DOT":-6.3e-7,"MEAN_MOTION_DDOT":0},{"OBJECT_NAME":"HULIANWANG DIGUI-44","OBJECT_ID":"2025-162E","EPOCH":"2026-03-03T03:06:39.784896","MEAN_MOTION":13.29340353,"ECCENTRICITY":7.85e-5,"INCLINATION":50.0011,"RA_OF_ASC_NODE":286.0975,"ARG_OF_PERICENTER":345.9652,"MEAN_ANOMALY":14.1198,"EPHEMERIS_TYPE":0,"CLASSIFICATION_TYPE":"U","NORAD_CAT_ID":65047,"ELEMENT_SET_NO":999,"REV_AT_EPOCH":2926,"BSTAR":0.00012552,"MEAN_MOTION_DOT":-6.6e-7,"MEAN_MOTION_DDOT":0},{"OBJECT_NAME":"HULIANWANG DIGUI-45","OBJECT_ID":"2025-162F","EPOCH":"2026-03-03T02:55:05.134944","MEAN_MOTION":13.29332689,"ECCENTRICITY":0.0001045,"INCLINATION":50.0042,"RA_OF_ASC_NODE":286.1089,"ARG_OF_PERICENTER":66.7597,"MEAN_ANOMALY":293.3385,"EPHEMERIS_TYPE":0,"CLASSIFICATION_TYPE":"U","NORAD_CAT_ID":65048,"ELEMENT_SET_NO":999,"REV_AT_EPOCH":2925,"BSTAR":0.0001362,"MEAN_MOTION_DOT":-6.1e-7,"MEAN_MOTION_DDOT":0},{"OBJECT_NAME":"HULIANWANG DIGUI-46","OBJECT_ID":"2025-162G","EPOCH":"2026-03-03T04:31:18.668928","MEAN_MOTION":13.29332641,"ECCENTRICITY":0.0001042,"INCLINATION":50.0059,"RA_OF_ASC_NODE":285.8283,"ARG_OF_PERICENTER":69.1076,"MEAN_ANOMALY":290.9908,"EPHEMERIS_TYPE":0,"CLASSIFICATION_TYPE":"U","NORAD_CAT_ID":65049,"ELEMENT_SET_NO":999,"REV_AT_EPOCH":2926,"BSTAR":0.00012707,"MEAN_MOTION_DOT":-6.5e-7,"MEAN_MOTION_DDOT":0},{"OBJECT_NAME":"HULIANWANG DIGUI-47","OBJECT_ID":"2025-162H","EPOCH":"2026-03-03T04:19:16.682016","MEAN_MOTION":13.29332524,"ECCENTRICITY":0.000102,"INCLINATION":50.0024,"RA_OF_ASC_NODE":285.7232,"ARG_OF_PERICENTER":70.0067,"MEAN_ANOMALY":290.0915,"EPHEMERIS_TYPE":0,"CLASSIFICATION_TYPE":"U","NORAD_CAT_ID":65050,"ELEMENT_SET_NO":999,"REV_AT_EPOCH":2926,"BSTAR":0.00012837,"MEAN_MOTION_DOT":-6.4e-7,"MEAN_MOTION_DDOT":0},{"OBJECT_NAME":"HULIANWANG DIGUI-48","OBJECT_ID":"2025-162J","EPOCH":"2026-03-03T04:07:16.755744","MEAN_MOTION":13.29332015,"ECCENTRICITY":0.000101,"INCLINATION":50.0034,"RA_OF_ASC_NODE":285.6969,"ARG_OF_PERICENTER":68.0858,"MEAN_ANOMALY":292.0122,"EPHEMERIS_TYPE":0,"CLASSIFICATION_TYPE":"U","NORAD_CAT_ID":65051,"ELEMENT_SET_NO":999,"REV_AT_EPOCH":2926,"BSTAR":0.00012125,"MEAN_MOTION_DOT":-6.8e-7,"MEAN_MOTION_DDOT":0}]
